ONEWEB-0159             
1 48062U 21025W   25142.39989818  .00000203  00000+0  51999-3 0  9999
2 48062  87.8989  37.8612 0002101  81.3861 278.7506 13.13470580202303
ONEWEB-0164             
1 48063U 21025X   25142.76216129  .00000186  00000+0  47349-3 0  9993
2 48063  87.8987  37.7997 0001799  78.9248 281.2083 13.13471383202345
ONEWEB-0167             
1 48064U 21025Y   25142.63773715  .00000027  00000+0  39198-4 0  9997
2 48064  87.8999  37.8500 0001957 103.9392 256.1955 13.13469119202304
ONEWEB-0166             
1 48065U 21025Z   25142.20352315 -.00000208  00000+0 -60341-3 0  9996
2 48065  87.8983  37.8974 0002008  77.6039 282.5315 13.13473076202328
ONEWEB-0151             
1 48066U 21025AA  25143.11933997 -.00000252  00000+0 -72396-3 0  9991
2 48066  87.8987  37.7370 0001799  84.7931 275.3403 13.13471104202393
ONEWEB-0170             
1 48067U 21025AB  25143.12780938 -.00000233  00000+0 -67220-3 0  9997
2 48067  87.8988  37.7404 0001356  85.1349 274.9935 13.13471085202348
ONEWEB-0168             
1 48068U 21025AC  25142.27461257 -.00000243  00000+0 -70014-3 0  9999
2 48068  87.8993  37.8895 0001878  81.4744 278.6598 13.13471411202245
ONEWEB-0173             
1 48069U 21025AD  25142.26616185 -.00000201  00000+0 -58513-3 0  9995
2 48069  87.8992  37.8995 0002081  92.1356 268.0011 13.13468941202484
